HELIOS 1B               
1 25977U 99064A   21081.90394261  .00000109  00000-0  20677-4 0  9990
2 25977  98.3091 253.0414 0002028 129.5756 230.5636 14.82541013416373
TERRA                   
1 25994U 99068A   21082.17921157  .00000077  00000-0  27052-4 0  9991
2 25994  98.1822 158.1593 0001235  95.9110 292.2594 14.57127003130905
SL-16 R/B               
1 26070U 00006B   21081.88590463  .00000148  00000-0  10015-3 0  9999
2 26070  71.0020 308.1600 0014667  57.1006 303.1525 14.15468817 92036
MTI                     
1 26102U 00014A   21081.98047272  .00012804  00000-0  16314-3 0  9990
2 26102  97.4713 344.0498 0005039 282.7163  77.3685 15.59454419167863
TITAN 4B R/B            
1 26474U 00047B   21082.11478107  .00000274  00000-0  34377-4 0  9997
2 26474  67.9954  28.5776 0060877 252.6007 106.8473 14.96109177121008
ENVISAT                 
1 27386U 02009A   21082.02992372  .00000057  00000-0  32291-4 0  9997
2 27386  98.1467  80.5118 0001362  92.2276 336.5403 14.38017679998653
IDEFIX & ARIANE 42P R/B 
1 27422U 02021B   21081.86365178  .00000036  00000-0  30628-4 0  9990
2 27422  98.3926  37.9817 0013088 125.2158 235.0252 14.29312135984938
AQUA                    
1 27424U 02022A   21082.14252413  .00000146  00000-0  42334-4 0  9991
2 27424  98.2021  24.7402 0001295 130.6594 318.6510 14.57111202  4504
CZ-4B R/B               
1 27432U 02024C   21081.97296719 -.00000016  00000-0  15590-4 0  9990
2 27432  99.0901  94.9143 0051376 110.3864 306.6395 14.14105632973012
MIDORI II (ADEOS-II)    
1 27597U 02056A   21081.88051120  .00000049  00000-0  37507-4 0  9999
2 27597  98.5558  28.9663 0000275 120.9602 239.1606 14.27489599951538
H-2A R/B                
1 27601U 02056E   21082.11483552 -.00000025  00000-0  53702-5 0  9991
2 27601  98.1985 109.1066 0072507 166.4092 262.8223 14.31990647954579
CZ-4B R/B               
1 28059U 03049C   21081.81086619  .00000043  00000-0  22173-4 0  9997
2 28059  98.4923   7.5240 0050338   8.9933 351.2152 14.52641074923243
CZ-2C R/B               
1 28222U 04012C   21082.18975624  .00000986  00000-0  62002-4 0  9995
2 28222  97.7179  52.1882 0047374 154.7395 216.1624 15.10760655928101
SL-16 R/B               
1 28353U 04021B   21081.95634728  .00000007  00000-0  28392-4 0  9999
2 28353  70.9988  75.2207 0007322 269.7898  90.2385 14.14235334866513
CZ-4B R/B               
1 28415U 04035C   21081.98827668  .00000770  00000-0  53972-4 0  9992
2 28415  97.5772 125.9275 0052768 121.6508 238.9883 15.07057791905581
CZ-2C R/B               
1 28480U 04046B   21081.95989965  .00000100  00000-0  52206-4 0  9998
2 28480  98.0559 100.9181 0143001 119.9149 301.8831 14.25746628850106
ARIANE 5 R/B            
1 28499U 04049H   21081.92025057  .00000157  00000-0  26508-4 0  9999
2 28499  98.0612 190.7612 0093402  93.3649  24.8647 14.80102933877282
CZ-2D R/B               
1 28738U 05024B   21081.63700222  .00000675  00000-0  42579-4 0  9992
2 28738  97.3670 100.7231 0010467 307.1382  52.8893 15.12315449863443
SUZAKU (ASTRO-EII)      
1 28773U 05025A   21081.85453908  .00001937  00000-0  88118-4 0  9993
2 28773  31.3827   5.6675 0004377 133.8164 226.2845 15.18197067866294
ALOS (DAICHI)           
1 28931U 06002A   21082.16611521  .00000167  00000-0  41434-4 0  9991
2 28931  97.8781  60.7259 0001072  17.7861 342.3370 14.62813062808443
H-2A R/B                
1 28932U 06002B   21081.97305567  .00000636  00000-0  63706-4 0  9997
2 28932  98.3323  93.9388 0089393 129.9491 287.1425 14.92478811822681
AKARI (ASTRO-F)         
1 28939U 06005A   21081.64555006  .00007588  00000-0  18982-3 0  9994
2 28939  98.2501  94.4874 0090295  70.2522 290.8431 15.36285503823577
RESURS-DK 1             
1 29228U 06021A   21081.87905403  .00000248  00000-0  25885-4 0  9996
2 29228  69.9361 199.1464 0003814 352.3300   7.7802 15.02661754814548
GENESIS 1               
1 29252U 06029A   21081.43234683  .00000801  00000-0  48170-4 0  9995
2 29252  64.5191 112.1493 0034536 334.8908  25.0534 15.18527781810301
CZ-4B R/B               
1 29507U 06046C   21082.08337804  .00001088  00000-0  88855-4 0  9990
2 29507  97.7229 108.4440 0047398 308.2949  51.4016 15.00716196787205
CZ-2C R/B               
1 31114U 07010B   21081.55148183  .00000072  00000-0  51946-4 0  9993
2 31114  98.2376 281.3495 0059799 175.1717 185.0050 14.19351779722453
COSMO-SKYMED 1          
1 31598U 07023A   21082.16123317  .00000182  00000-0  29367-4 0  9997
2 31598  97.8878 267.2755 0001482  93.8457 266.2902 14.82158915746110
GENESIS 2               
1 31789U 07028A   21081.54471354  .00000801  00000-0  49552-4 0  9998
2 31789  64.5065 153.9824 0020694 209.5893 150.4061 15.17681733757362
COSMOS 2428             
1 31792U 07029A   21082.13602309  .00000077  00000-0  67944-4 0  9995
2 31792  70.8930  47.3864 0006572 342.5364  17.5530 14.12240945708211
SL-16 R/B               
1 31793U 07029B   21082.11638554 -.00000264  00000-0 -11297-3 0  9994
2 31793  70.9788  20.9875 0002909 264.0147 106.9017 14.14445208709136
KORONAS-FOTON           
1 33504U 09003A   21082.08572150  .00000864  00000-0  43228-4 0  9999
2 33504  82.4405 305.5311 0019967  38.6413 321.6244 15.15912579669698
H-2A R/B                
1 38341U 12025E   21081.89813688  .00000333  00000-0  46316-4 0  9995
2 38341  98.5247 261.4673 0056398  58.2958 302.3735 14.84193433478667
CUSAT 2 & FALCON 9 R/B  
1 39271U 13055G   21082.10281211  .00011569  00000-0  27009-3 0  9998
2 39271  80.9664 326.5468 0575100  50.2718 314.7714 14.51511799391106
SL-4 R/B                
1 39679U 14021B   21082.17605048  .00001368  00000-0  82906-4 0  9993
2 39679  51.6154 253.5946 0170573 191.6990 167.9994 15.06824618381367
ALOS-2                  
1 39766U 14029A   21082.09086912  .00000212  00000-0  35308-4 0  9993
2 39766  97.9187 180.6955 0001660  90.2823 269.8593 14.79474410368892
CZ-2C R/B               
1 40306U 14071B   21081.88687684  .00007902  00000-0  15553-3 0  9993
2 40306  97.3606  37.8329 0012876 224.3383 135.6836 15.47442930356866
SL-27 R/B               
1 40354U 14084B   21081.93952380  .00002152  00000-0  52359-4 0  9992
2 40354  74.7393 171.7075 0037634 221.9506 137.8823 15.40893497351019
YAOGAN 29               
1 41038U 15069A   21082.10084488  .00000040  00000-0  12191-4 0  9995
2 41038  98.0350  75.9760 0002280  75.6146 284.5320 14.80492615287504
ASTRO-H (HITOMI)        
1 41337U 16012A   21082.18959882  .00000480  00000-0  31947-4 0  9991
2 41337  31.0062  42.3100 0012358 305.4332  54.5149 14.98804916279355
HXMT (HUIYAN)           
1 42758U 17034A   21082.15154991  .00000491  00000-0  44020-4 0  9997
2 42758  43.0191 306.8084 0010387 332.7425 173.3637 15.09109791207977
CZ-2C R/B               
1 43521U 18054D   21081.94977489  .00001092  00000-0  60855-4 0  9992
2 43521  35.1527 263.2115 0081449  54.3247 306.5015 15.11370665151306
AEOLUS                  
1 43600U 18066A   21081.97052678  .00050691  00000-0  19682-3 0  9990
2 43600  96.7189  90.1370 0007252  94.7953 265.4148 15.86996247149537
SAOCOM 1A               
1 43641U 18076A   21082.10219191  .00000028  00000-0  10110-4 0  9994
2 43641  97.8890 270.2527 0001450  82.6335 277.5041 14.82153947132874
CREW DRAGON DEMO-1 DEB  
1 44064U 19011B   21082.05236510  .00075542  00000-0  38748-3 0  9991
2 44064  51.6260 329.1144 0001437  95.0872 265.0294 15.80576093116695
SAOCOM 1B               
1 46265U 20059A   21082.06583219  .00000025  00000-0  97160-5 0  9991
2 46265  97.8869 269.2881 0001410  83.2125 276.9235 14.82153488 30264
CZ-2F R/B               
1 46390U 20063B   21082.06092793  .00080176  13483-4  24692-3 0  9993
2 46390  50.2001  73.9900 0009893  89.7490 270.4630 15.91758785 31659
2020-063G               
1 46395U 20063G   21081.86921792  .00028745  00000-0  13172-3 0  9997
2 46395  50.2037  80.5777 0009367  81.1201 279.0842 15.83352529 31546
